[{"OBJECT_NAME":"STARLINK-36704","OBJECT_ID":"2026-025E","EPOCH":"2026-03-09T20:23:33.791424","MEAN_MOTION":15.75207906,"ECCENTRICITY":0.00017308,"INCLINATION":97.2838,"RA_OF_ASC_NODE":180.4112,"ARG_OF_PERICENTER":59.6827,"MEAN_ANOMALY":300.4609,"EPHEMERIS_TYPE":0,"CLASSIFICATION_TYPE":"U","NORAD_CAT_ID":67697,"ELEMENT_SET_NO":999,"REV_AT_EPOCH":596,"BSTAR":0.0019763589,"MEAN_MOTION_DOT":0.00305696,"MEAN_MOTION_DDOT":0},{"OBJECT_NAME":"FENGYUN 1C DEB","OBJECT_ID":"1999-025CUZ","EPOCH":"2026-03-07T03:33:19.659744","MEAN_MOTION":15.49361115,"ECCENTRICITY":0.0121693,"INCLINATION":97.0067,"RA_OF_ASC_NODE":319.8074,"ARG_OF_PERICENTER":141.5541,"MEAN_ANOMALY":219.4462,"EPHEMERIS_TYPE":0,"CLASSIFICATION_TYPE":"U","NORAD_CAT_ID":32203,"ELEMENT_SET_NO":999,"REV_AT_EPOCH":76401,"BSTAR":0.00044112138,"MEAN_MOTION_DOT":0.00032745,"MEAN_MOTION_DDOT":0}]
